{"type": "FeatureCollection", "features": [ {"type": "Feature", "properties": {"norad_id": 28659, "name": "DIRECTV 8", "group": "intelsat", "lat": -0.01838264416129283, "lon": -170.13457662813178, "alt_km": 35785.793553853655, "timestamp": "2025-12-20T14:38:01.626070+00:00", "meta": {"OBJECT_NAME": "DIRECTV 8", "OBJECT_ID": "2005-019A", "EPOCH": "2025-12-20T04:36:46.152576", "MEAN_MOTION": 1.00271258, "ECCENTRICITY": 0.00028269, "INCLINATION": 0.0156, "RA_OF_ASC_NODE": 333.8724, "ARG_OF_PERICENTER": 304.0914, "MEAN_ANOMALY": 121.2184, "EPHEMERIS_TYPE": 0, "CLASSIFICATION_TYPE": "U", "NORAD_CAT_ID": 28659, "ELEMENT_SET_NO": 999, "REV_AT_EPOCH": 7527, "BSTAR": 0, "MEAN_MOTION_DOT": 2.5e-07, "MEAN_MOTION_DDOT": 0}, "tle": {"line1": "1 28659U 05019A   25354.19220084  .00000025  00000+0  00000+0 0  9995", "line2": "2 28659   0.0156 333.8724 0002826 304.0914 121.2184  1.00271258 75279"}}, "geometry": {"type": "Point", "coordinates": [-170.13457662813178, -0.01838264416129283]}}, {"type": "Feature", "properties": {"norad_id": 28702, "name": "GALAXY 28 (G-28)", "group": "intelsat", "lat": 1.8443518816014763, "lon": -139.7333389107419, "alt_km": 35778.93556919081, "timestamp": "2025-12-20T14:38:01.626083+00:00", "meta": {"OBJECT_NAME": "GALAXY 28 (G-28)", "OBJECT_ID": "2005-022A", "EPOCH": "2025-12-20T00:49:30.482112", "MEAN_MOTION": 1.00271047, "ECCENTRICITY": 0.00029384, "INCLINATION": 2.8382, "RA_OF_ASC_NODE": 81.1982, "ARG_OF_PERICENTER": 194.0723, "MEAN_ANOMALY": 97.2981, "EPHEMERIS_TYPE": 0, "CLASSIFICATION_TYPE": "U", "NORAD_CAT_ID": 28702, "ELEMENT_SET_NO": 999, "REV_AT_EPOCH": 5017, "BSTAR": 0, "MEAN_MOTION_DOT": -1.65e-06, "MEAN_MOTION_DDOT": 0}, "tle": {"line1": "1 28702U 05022A   25354.03438058 -.00000165  00000+0  00000+0 0  9999", "line2": "2 28702   2.8382  81.1982 0002938 194.0723  97.2981  1.00271047 50172"}}, "geometry": {"type": "Point", "coordinates": [-139.7333389107419, 1.8443518816014763]}}, {"type": "Feature", "properties": {"norad_id": 29236, "name": "GALAXY 16 (G-16)", "group": "intelsat", "lat": 0.0015530136498227917, "lon": -150.09066424777149, "alt_km": 35780.87328735102, "timestamp": "2025-12-20T14:38:01.626098+00:00", "meta": {"OBJECT_NAME": "GALAXY 16 (G-16)", "OBJECT_ID": "2006-023A", "EPOCH": "2025-12-20T06:03:31.250592", "MEAN_MOTION": 1.00271198, "ECCENTRICITY": 0.00024594, "INCLINATION": 0.0085, "RA_OF_ASC_NODE": 242.9238, "ARG_OF_PERICENTER": 25.9007, "MEAN_ANOMALY": 172.1406, "EPHEMERIS_TYPE": 0, "CLASSIFICATION_TYPE": "U", "NORAD_CAT_ID": 29236, "ELEMENT_SET_NO": 999, "REV_AT_EPOCH": 7117, "BSTAR": 0, "MEAN_MOTION_DOT": -1.03e-06, "MEAN_MOTION_DDOT": 0}, "tle": {"line1": "1 29236U 06023A   25354.25244503 -.00000103  00000+0  00000+0 0  9990", "line2": "2 29236   0.0085 242.9238 0002459  25.9007 172.1406  1.00271198 71176"}}, "geometry": {"type": "Point", "coordinates": [-150.09066424777149, 0.0015530136498227917]}}, {"type": "Feature", "properties": {"norad_id": 29494, "name": "DIRECTV 9S", "group": "intelsat", "lat": 1.6006822744888891, "lon": -152.28305815817106, "alt_km": 35781.297200917346, "timestamp": "2025-12-20T14:38:01.626110+00:00", "meta": {"OBJECT_NAME": "DIRECTV 9S", "OBJECT_ID": "2006-043A", "EPOCH": "2025-12-20T05:59:26.920032", "MEAN_MOTION": 1.00271669, "ECCENTRICITY": 0.00028213, "INCLINATION": 1.9584, "RA_OF_ASC_NODE": 83.134, "ARG_OF_PERICENTER": 191.9305, "MEAN_ANOMALY": 162.6731, "EPHEMERIS_TYPE": 0, "CLASSIFICATION_TYPE": "U", "NORAD_CAT_ID": 29494, "ELEMENT_SET_NO": 999, "REV_AT_EPOCH": 4958, "BSTAR": 0, "MEAN_MOTION_DOT": -9.1e-07, "MEAN_MOTION_DDOT": 0}, "tle": {"line1": "1 29494U 06043A   25354.24961713 -.00000091  00000+0  00000+0 0  9992", "line2": "2 29494   1.9584  83.1340 0002821 191.9305 162.6731  1.00271669 49581"}}, "geometry": {"type": "Point", "coordinates": [-152.28305815817106, 1.6006822744888891]}}, {"type": "Feature", "properties": {"norad_id": 31307, "name": "GALAXY 17 (G-17)", "group": "intelsat", "lat": 1.540661033905957, "lon": -136.02083049909172, "alt_km": 35765.6107430671, "timestamp": "2025-12-20T14:38:01.626121+00:00", "meta": {"OBJECT_NAME": "GALAXY 17 (G-17)", "OBJECT_ID": "2007-016B", "EPOCH": "2025-12-20T00:50:37.874976", "MEAN_MOTION": 1.00272416, "ECCENTRICITY": 0.00054284, "INCLINATION": 2.5175, "RA_OF_ASC_NODE": 82.2053, "ARG_OF_PERICENTER": 170.456, "MEAN_ANOMALY": 123.9095, "EPHEMERIS_TYPE": 0, "CLASSIFICATION_TYPE": "U", "NORAD_CAT_ID": 31307, "ELEMENT_SET_NO": 999, "REV_AT_EPOCH": 6800, "BSTAR": 0, "MEAN_MOTION_DOT": -1.84e-06, "MEAN_MOTION_DDOT": 0}, "tle": {"line1": "1 31307U 07016B   25354.03516059 -.00000184  00000+0  00000+0 0  9998", "line2": "2 31307   2.5175  82.2053 0005428 170.4560 123.9095  1.00272416 68004"}}, "geometry": {"type": "Point", "coordinates": [-136.02083049909172, 1.540661033905957]}}, {"type": "Feature", "properties": {"norad_id": 31862, "name": "DIRECTV 10", "group": "intelsat", "lat": -0.000685888618155242, "lon": -153.85313832057236, "alt_km": 35785.23257347829, "timestamp": "2025-12-20T14:38:01.626133+00:00", "meta": {"OBJECT_NAME": "DIRECTV 10", "OBJECT_ID": "2007-032A", "EPOCH": "2025-12-19T22:03:56.325888", "MEAN_MOTION": 1.00274879, "ECCENTRICITY": 2.875e-05, "INCLINATION": 0.0068, "RA_OF_ASC_NODE": 101.121, "ARG_OF_PERICENTER": 14.8221, "MEAN_ANOMALY": 200.9996, "EPHEMERIS_TYPE": 0, "CLASSIFICATION_TYPE": "U", "NORAD_CAT_ID": 31862, "ELEMENT_SET_NO": 999, "REV_AT_EPOCH": 4379, "BSTAR": 0, "MEAN_MOTION_DOT": -7.9e-07, "MEAN_MOTION_DDOT": 0}, "tle": {"line1": "1 31862U 07032A   25353.91940192 -.00000079  00000+0  00000+0 0  9990", "line2": "2 31862   0.0068 101.1210 0000287  14.8221 200.9996  1.00274879 43793"}}, "geometry": {"type": "Point", "coordinates": [-153.85313832057236, -0.000685888618155242]}}, {"type": "Feature", "properties": {"norad_id": 32253, "name": "INTELSAT 11 (IS-11)", "group": "intelsat", "lat": 2.676266290035839, "lon": 139.88559498785048, "alt_km": 36143.540532270585, "timestamp": "2025-12-20T14:38:01.626144+00:00", "meta": {"OBJECT_NAME": "INTELSAT 11 (IS-11)", "OBJECT_ID": "2007-044B", "EPOCH": "2025-12-20T03:52:39.856224", "MEAN_MOTION": 0.99052164, "ECCENTRICITY": 0.00085362, "INCLINATION": 3.0984, "RA_OF_ASC_NODE": 80.8952, "ARG_OF_PERICENTER": 168.8348, "MEAN_ANOMALY": 90.4755, "EPHEMERIS_TYPE": 0, "CLASSIFICATION_TYPE": "U", "NORAD_CAT_ID": 32253, "ELEMENT_SET_NO": 999, "REV_AT_EPOCH": 6667, "BSTAR": 0, "MEAN_MOTION_DOT": -5.2e-07, "MEAN_MOTION_DDOT": 0}, "tle": {"line1": "1 32253U 07044B   25354.16157241 -.00000052  00000+0  00000+0 0  9992", "line2": "2 32253   3.0984  80.8952 0008536 168.8348  90.4755  0.99052164 66674"}}, "geometry": {"type": "Point", "coordinates": [139.88559498785048, 2.676266290035839]}}, {"type": "Feature", "properties": {"norad_id": 32388, "name": "HORIZONS-2", "group": "intelsat", "lat": 0.9744516250685611, "lon": -124.8587458763795, "alt_km": 35771.391976624276, "timestamp": "2025-12-20T14:38:01.626156+00:00", "meta": {"OBJECT_NAME": "HORIZONS-2", "OBJECT_ID": "2007-063B", "EPOCH": "2025-12-20T02:31:38.593920", "MEAN_MOTION": 1.00271871, "ECCENTRICITY": 0.00045794, "INCLINATION": 2.1396, "RA_OF_ASC_NODE": 82.8824, "ARG_OF_PERICENTER": 193.592, "MEAN_ANOMALY": 136.5976, "EPHEMERIS_TYPE": 0, "CLASSIFICATION_TYPE": "U", "NORAD_CAT_ID": 32388, "ELEMENT_SET_NO": 999, "REV_AT_EPOCH": 6601, "BSTAR": 0, "MEAN_MOTION_DOT": -2.31e-06, "MEAN_MOTION_DDOT": 0}, "tle": {"line1": "1 32388U 07063B   25354.10530780 -.00000231  00000+0  00000+0 0  9998", "line2": "2 32388   2.1396  82.8824 0004579 193.5920 136.5976  1.00271871 66010"}}, "geometry": {"type": "Point", "coordinates": [-124.8587458763795, 0.9744516250685611]}}, {"type": "Feature", "properties": {"norad_id": 32729, "name": "DIRECTV 11", "group": "intelsat", "lat": -0.015075279457792485, "lon": -150.24111112905712, "alt_km": 35784.478220266436, "timestamp": "2025-12-20T14:38:01.626168+00:00", "meta": {"OBJECT_NAME": "DIRECTV 11", "OBJECT_ID": "2008-013A", "EPOCH": "2025-12-19T16:13:00.599232", "MEAN_MOTION": 1.00272169, "ECCENTRICITY": 4.774e-05, "INCLINATION": 0.0442, "RA_OF_ASC_NODE": 195.9689, "ARG_OF_PERICENTER": 333.3014, "MEAN_ANOMALY": 63.3182, "EPHEMERIS_TYPE": 0, "CLASSIFICATION_TYPE": "U", "NORAD_CAT_ID": 32729, "ELEMENT_SET_NO": 999, "REV_AT_EPOCH": 4379, "BSTAR": 0, "MEAN_MOTION_DOT": -1.01e-06, "MEAN_MOTION_DDOT": 0}, "tle": {"line1": "1 32729U 08013A   25353.67570138 -.00000101  00000+0  00000+0 0  9991", "line2": "2 32729   0.0442 195.9689 0000477 333.3014  63.3182  1.00272169 43791"}}, "geometry": {"type": "Point", "coordinates": [-150.24111112905712, -0.015075279457792485]}}, {"type": "Feature", "properties": {"norad_id": 32951, "name": "GALAXY 18 (G-18)", "group": "intelsat", "lat": 0.010362059391241771, "lon": -174.10406115778758, "alt_km": 35785.796070791934, "timestamp": "2025-12-20T14:38:01.626179+00:00", "meta": {"OBJECT_NAME": "GALAXY 18 (G-18)", "OBJECT_ID": "2008-024A", "EPOCH": "2025-12-20T05:47:52.257120", "MEAN_MOTION": 1.00271014, "ECCENTRICITY": 0.00028238, "INCLINATION": 0.014, "RA_OF_ASC_NODE": 53.4203, "ARG_OF_PERICENTER": 220.2424, "MEAN_ANOMALY": 139.3742, "EPHEMERIS_TYPE": 0, "CLASSIFICATION_TYPE": "U", "NORAD_CAT_ID": 32951, "ELEMENT_SET_NO": 999, "REV_AT_EPOCH": 4405, "BSTAR": 0, "MEAN_MOTION_DOT": 4.9e-07, "MEAN_MOTION_DDOT": 0}, "tle": {"line1": "1 32951U 08024A   25354.24157705  .00000049  00000+0  00000+0 0  9995", "line2": "2 32951   0.0140  53.4203 0002823 220.2424 139.3742  1.00271014 44053"}}, "geometry": {"type": "Point", "coordinates": [-174.10406115778758, 0.010362059391241771]}}]}